[{"OBJECT_NAME":"OBJECT A","OBJECT_ID":"2023-189A","EPOCH":"2026-03-09T22:59:06.381600","MEAN_MOTION":15.32403275,"ECCENTRICITY":0.00094831,"INCLINATION":97.4458,"RA_OF_ASC_NODE":86.5997,"ARG_OF_PERICENTER":249.5377,"MEAN_ANOMALY":110.4847,"EPHEMERIS_TYPE":0,"CLASSIFICATION_TYPE":"U","NORAD_CAT_ID":58502,"ELEMENT_SET_NO":999,"REV_AT_EPOCH":12601,"BSTAR":0.00019874471,"MEAN_MOTION_DOT":6.146e-5,"MEAN_MOTION_DDOT":0},{"OBJECT_NAME":"STARLINK-33728","OBJECT_ID":"2025-087U","EPOCH":"2026-03-09T16:53:29.284224","MEAN_MOTION":15.30196292,"ECCENTRICITY":8.81e-5,"INCLINATION":53.1573,"RA_OF_ASC_NODE":219.3537,"ARG_OF_PERICENTER":73.6575,"MEAN_ANOMALY":286.4522,"EPHEMERIS_TYPE":0,"CLASSIFICATION_TYPE":"U","NORAD_CAT_ID":63715,"ELEMENT_SET_NO":999,"REV_AT_EPOCH":4920,"BSTAR":0.00091184701,"MEAN_MOTION_DOT":0.00026741,"MEAN_MOTION_DDOT":0}]
